[{"OBJECT_NAME":"STARLINK-5425","OBJECT_ID":"2022-175AK","EPOCH":"2026-03-09T07:32:51.777024","MEAN_MOTION":15.08841332,"ECCENTRICITY":0.00016654,"INCLINATION":53.2184,"RA_OF_ASC_NODE":30.748,"ARG_OF_PERICENTER":105.8223,"MEAN_ANOMALY":254.2953,"EPHEMERIS_TYPE":0,"CLASSIFICATION_TYPE":"U","NORAD_CAT_ID":54791,"ELEMENT_SET_NO":999,"REV_AT_EPOCH":18007,"BSTAR":-4.1597278e-5,"MEAN_MOTION_DOT":-9.5e-6,"MEAN_MOTION_DDOT":0},{"OBJECT_NAME":"PEGASUS DEB","OBJECT_ID":"1994-029LN","EPOCH":"2026-03-09T13:32:28.639104","MEAN_MOTION":14.7969053,"ECCENTRICITY":0.014325,"INCLINATION":81.5077,"RA_OF_ASC_NODE":265.5669,"ARG_OF_PERICENTER":165.8227,"MEAN_ANOMALY":194.7072,"EPHEMERIS_TYPE":0,"CLASSIFICATION_TYPE":"U","NORAD_CAT_ID":24239,"ELEMENT_SET_NO":999,"REV_AT_EPOCH":56152,"BSTAR":0.0015079,"MEAN_MOTION_DOT":0.00013522,"MEAN_MOTION_DDOT":0}]
